{
  "type": "FeatureCollection",
  "features": [
    {
      "type": "Feature",
      "properties": {
        "norad_id": 24946,
        "name": "IRIDIUM 33",
        "group": "iridium-33-debris",
        "lat": -7.963987165859238,
        "lon": 63.95401665759599,
        "alt_km": 784.7070567370301,
        "timestamp": "2025-12-21T16:47:55.123204+00:00",
        "meta_object_name": "IRIDIUM 33",
        "meta_object_id": "1997-051C",
        "meta_epoch": "2025-12-21T05:07:17.080032",
        "meta_mean_motion": 14.35042893,
        "meta_eccentricity": 0.0008046,
        "meta_inclination": 86.3863,
        "meta_ra_of_asc_node": 64.6648,
        "meta_arg_of_pericenter": 172.1604,
        "meta_mean_anomaly": 187.9719,
        "meta_ephemeris_type": 0,
        "meta_classification_type": "U",
        "meta_norad_cat_id": 24946,
        "meta_element_set_no": 999,
        "meta_rev_at_epoch": 47956,
        "meta_bstar": 9.3366e-05,
        "meta_mean_motion_dot": 2.86e-06,
        "meta_mean_motion_ddot": 0,
        "tle_line1": "1 24946U 97051C   25355.21339213  .00000286  00000+0  93366-4 0  9997",
        "tle_line2": "2 24946  86.3863  64.6648 0008046 172.1604 187.9719 14.35042893479566"
      },
      "geometry": {
        "type": "Point",
        "coordinates": [
          63.95401665759599,
          -7.963987165859238
        ]
      }
    },
    {
      "type": "Feature",
      "properties": {
        "norad_id": 33773,
        "name": "IRIDIUM 33 DEB",
        "group": "iridium-33-debris",
        "lat": -34.276428981006475,
        "lon": -120.74848425874026,
        "alt_km": 754.6333766611106,
        "timestamp": "2025-12-21T16:47:55.123246+00:00",
        "meta_object_name": "IRIDIUM 33 DEB",
        "meta_object_id": "1997-051L",
        "meta_epoch": "2025-12-21T05:49:35.518080",
        "meta_mean_motion": 14.43273713,
        "meta_eccentricity": 0.0013116,
        "meta_inclination": 86.4002,
        "meta_ra_of_asc_node": 56.9862,
        "meta_arg_of_pericenter": 121.8026,
        "meta_mean_anomaly": 238.4454,
        "meta_ephemeris_type": 0,
        "meta_classification_type": "U",
        "meta_norad_cat_id": 33773,
        "meta_element_set_no": 999,
        "meta_rev_at_epoch": 88470,
        "meta_bstar": 0.0002336,
        "meta_mean_motion_dot": 8.07e-06,
        "meta_mean_motion_ddot": 0,
        "tle_line1": "1 33773U 97051L   25355.24277220  .00000807  00000+0  23360-3 0  9992",
        "tle_line2": "2 33773  86.4002  56.9862 0013116 121.8026 238.4454 14.43273713884705"
      },
      "geometry": {
        "type": "Point",
        "coordinates": [
          -120.74848425874026,
          -34.276428981006475
        ]
      }
    },
    {
      "type": "Feature",
      "properties": {
        "norad_id": 33775,
        "name": "IRIDIUM 33 DEB",
        "group": "iridium-33-debris",
        "lat": -60.031879598688,
        "lon": -127.93841492285908,
        "alt_km": 764.9082165441359,
        "timestamp": "2025-12-21T16:47:55.123263+00:00",
        "meta_object_name": "IRIDIUM 33 DEB",
        "meta_object_id": "1997-051N",
        "meta_epoch": "2025-12-21T12:36:39.335328",
        "meta_mean_motion": 14.41485741,
        "meta_eccentricity": 0.0015083,
        "meta_inclination": 86.3627,
        "meta_ra_of_asc_node": 45.8025,
        "meta_arg_of_pericenter": 128.3551,
        "meta_mean_anomaly": 286.7487,
        "meta_ephemeris_type": 0,
        "meta_classification_type": "U",
        "meta_norad_cat_id": 33775,
        "meta_element_set_no": 999,
        "meta_rev_at_epoch": 88267,
        "meta_bstar": 0.00024711,
        "meta_mean_motion_dot": 8.23e-06,
        "meta_mean_motion_ddot": 0,
        "tle_line1": "1 33775U 97051N   25355.52545527  .00000823  00000+0  24711-3 0  9992",
        "tle_line2": "2 33775  86.3627  45.8025 0015083 128.3551 286.7487 14.41485741882677"
      },
      "geometry": {
        "type": "Point",
        "coordinates": [
          -127.93841492285908,
          -60.031879598688
        ]
      }
    },
    {
      "type": "Feature",
      "properties": {
        "norad_id": 33776,
        "name": "IRIDIUM 33 DEB",
        "group": "iridium-33-debris",
        "lat": 5.286844126611079,
        "lon": 77.34656205379386,
        "alt_km": 776.634180782693,
        "timestamp": "2025-12-21T16:47:55.123278+00:00",
        "meta_object_name": "IRIDIUM 33 DEB",
        "meta_object_id": "1997-051P",
        "meta_epoch": "2025-12-21T05:21:01.511424",
        "meta_mean_motion": 14.38249202,
        "meta_eccentricity": 0.0015311,
        "meta_inclination": 86.4033,
        "meta_ra_of_asc_node": 77.2134,
        "meta_arg_of_pericenter": 163.1939,
        "meta_mean_anomaly": 254.0485,
        "meta_ephemeris_type": 0,
        "meta_classification_type": "U",
        "meta_norad_cat_id": 33776,
        "meta_element_set_no": 999,
        "meta_rev_at_epoch": 88204,
        "meta_bstar": 0.00022734,
        "meta_mean_motion_dot": 7.11e-06,
        "meta_mean_motion_ddot": 0,
        "tle_line1": "1 33776U 97051P   25355.22293416  .00000711  00000+0  22734-3 0  9996",
        "tle_line2": "2 33776  86.4033  77.2134 0015311 163.1939 254.0485 14.38249202882044"
      },
      "geometry": {
        "type": "Point",
        "coordinates": [
          77.34656205379386,
          5.286844126611079
        ]
      }
    },
    {
      "type": "Feature",
      "properties": {
        "norad_id": 33777,
        "name": "IRIDIUM 33 DEB",
        "group": "iridium-33-debris",
        "lat": -6.36381021388216,
        "lon": 30.900477429937137,
        "alt_km": 714.4018044818677,
        "timestamp": "2025-12-21T16:47:55.123290+00:00",
        "meta_object_name": "IRIDIUM 33 DEB",
        "meta_object_id": "1997-051Q",
        "meta_epoch": "2025-12-21T11:52:42.684672",
        "meta_mean_motion": 14.55669187,
        "meta_eccentricity": 0.0005886,
        "meta_inclination": 86.3773,
        "meta_ra_of_asc_node": 31.3945,
        "meta_arg_of_pericenter": 211.2046,
        "meta_mean_anomaly": 148.8813,
        "meta_ephemeris_type": 0,
        "meta_classification_type": "U",
        "meta_norad_cat_id": 33777,
        "meta_element_set_no": 999,
        "meta_rev_at_epoch": 88661,
        "meta_bstar": 0.00060679,
        "meta_mean_motion_dot": 2.671e-05,
        "meta_mean_motion_ddot": 0,
        "tle_line1": "1 33777U 97051Q   25355.49493848  .00002671  00000+0  60679-3 0  9994",
        "tle_line2": "2 33777  86.3773  31.3945 0005886 211.2046 148.8813 14.55669187886615"
      },
      "geometry": {
        "type": "Point",
        "coordinates": [
          30.900477429937137,
          -6.36381021388216
        ]
      }
    },
    {
      "type": "Feature",
      "properties": {
        "norad_id": 33850,
        "name": "IRIDIUM 33 DEB",
        "group": "iridium-33-debris",
        "lat": -62.738507319960455,
        "lon": -146.53952575365128,
        "alt_km": 761.5949016934064,
        "timestamp": "2025-12-21T16:47:55.123302+00:00",
        "meta_object_name": "IRIDIUM 33 DEB",
        "meta_object_id": "1997-051T",
        "meta_epoch": "2025-12-21T12:54:25.324704",
        "meta_mean_motion": 14.4216572,
        "meta_eccentricity": 0.0013029,
        "meta_inclination": 86.3408,
        "meta_ra_of_asc_node": 26.3962,
        "meta_arg_of_pericenter": 134.7554,
        "meta_mean_anomaly": 346.6938,
        "meta_ephemeris_type": 0,
        "meta_classification_type": "U",
        "meta_norad_cat_id": 33850,
        "meta_element_set_no": 999,
        "meta_rev_at_epoch": 88279,
        "meta_bstar": 0.00030357,
        "meta_mean_motion_dot": 1.019e-05,
        "meta_mean_motion_ddot": 0,
        "tle_line1": "1 33850U 97051T   25355.53779311  .00001019  00000+0  30357-3 0  9998",
        "tle_line2": "2 33850  86.3408  26.3962 0013029 134.7554 346.6938 14.42165720882797"
      },
      "geometry": {
        "type": "Point",
        "coordinates": [
          -146.53952575365128,
          -62.738507319960455
        ]
      }
    },
    {
      "type": "Feature",
      "properties": {
        "norad_id": 33853,
        "name": "IRIDIUM 33 DEB",
        "group": "iridium-33-debris",
        "lat": -39.142095617688234,
        "lon": -17.382810143255412,
        "alt_km": 958.8495020883192,
        "timestamp": "2025-12-21T16:47:55.123315+00:00",
        "meta_object_name": "IRIDIUM 33 DEB",
        "meta_object_id": "1997-051W",
        "meta_epoch": "2025-12-20T22:14:35.888928",
        "meta_mean_motion": 13.9910315,
        "meta_eccentricity": 0.0207332,
        "meta_inclination": 85.9999,
        "meta_ra_of_asc_node": 346.2208,
        "meta_arg_of_pericenter": 210.5493,
        "meta_mean_anomaly": 176.3282,
        "meta_ephemeris_type": 0,
        "meta_classification_type": "U",
        "meta_norad_cat_id": 33853,
        "meta_element_set_no": 999,
        "meta_rev_at_epoch": 85460,
        "meta_bstar": 0.0010168,
        "meta_mean_motion_dot": 1.786e-05,
        "meta_mean_motion_ddot": 0,
        "tle_line1": "1 33853U 97051W   25354.92680427  .00001786  00000+0  10168-2 0  9990",
        "tle_line2": "2 33853  85.9999 346.2208 0207332 210.5493 176.3282 13.99103150854603"
      },
      "geometry": {
        "type": "Point",
        "coordinates": [
          -17.382810143255412,
          -39.142095617688234
        ]
      }
    }
  ]
}